QIANFAN-33              
1 61566U 24185Q   26193.82990911  .00000171  00000+0  11349-3 0  9993
2 61566  88.9796  55.1641 0008881  37.1931 322.9860 13.96718857 98769
QIANFAN-34              
1 61567U 24185R   26193.78099074  .00000120  00000+0  68830-4 0  9991
2 61567  88.9774  54.4524 0007113  36.1768 323.9892 14.02483344 99071
QIANFAN-35              
1 61568U 24185S   26193.78562816  .00000365  00000+0  14035-3 0  9999
2 61568  88.9800  51.9922 0004886 328.8039  31.2864 14.28296291100445
QIANFAN-36              
1 61569U 24185T   26193.80126187  .00000053  00000+0  59057-4 0  9998
2 61569  88.9774  58.9480 0007425 132.8276 227.3503 13.55639744 96658
QIANFAN-37              
1 62238U 24232B   26193.81337251  .00000052  00000+0  62699-4 0  9997
2 62238  89.0065  20.0099 0001919 107.8680 252.2680 13.51011089127803
QIANFAN-38              
1 62239U 24232C   26193.83806512  .00000047  00000+0  54744-4 0  9997
2 62239  89.0072  19.9376 0012815 307.5489  52.4497 13.51007734127864
QIANFAN-39              
1 62240U 24232D   26193.84104399  .00000100  00000+0  36156-4 0  9991
2 62240  89.0059  13.1436 0018484 102.3866 257.9397 14.25532055131601
QIANFAN-40              
1 62241U 24232E   26193.87094084  .00000044  00000+0  50320-4 0  9990
2 62241  89.0099  19.5780 0012070 317.0036  43.0171 13.51009290128234
QIANFAN-41              
1 62242U 24232F   26193.80510058  .00000049  00000+0  56848-4 0  9994
2 62242  89.0070  19.8885 0012158 303.5677  56.4313 13.51012077127884
QIANFAN-42              
1 62243U 24232G   26193.83372528  .00000093  00000+0  33732-4 0  9992
2 62243  89.0057  13.2230 0017253 108.2285 252.0787 14.24620568131568
QIANFAN-43              
1 62244U 24232H   26193.80098041  .00000051  00000+0  60225-4 0  9996
2 62244  89.0075  19.9636 0013813 308.9261  51.0658 13.51011558 96491
QIANFAN-44              
1 62245U 24232J   26193.86264836  .00000039  00000+0  41862-4 0  9992
2 62245  89.0073  19.7647 0011960 306.0548  53.9495 13.51013464127974
QIANFAN-45              
1 62246U 24232K   26193.82982073  .00000034  00000+0  33732-4 0  9991
2 62246  89.0076  19.9221 0012614 305.4356  54.5617 13.51010877127894
QIANFAN-46              
1 62247U 24232L   26193.78041407  .00000033  00000+0  32013-4 0  9994
2 62247  89.0072  19.9874 0012803 311.8480  48.1578 13.51011547127849
QIANFAN-47              
1 62248U 24232M   26193.85860567  .00000047  00000+0  54410-4 0  9999
2 62248  89.0068  19.9040 0013199 310.4839  49.5161 13.51011008127881
QIANFAN-48              
1 62249U 24232N   26193.82143522  .00000037  00000+0  39128-4 0  9990
2 62249  89.0072  19.9178 0015508 312.6313  47.3529 13.51015617127880
