{"fetched_at":"2026-07-13T07:47:58.237Z","source":"https://celestrak.org/NORAD/elements/gp.php?GROUP=qianfan&FORMAT=JSON","constellation":"qianfan","records":[{"OBJECT_NAME":"QIANFAN-33","OBJECT_ID":"2024-185Q","EPOCH":"2026-07-12T19:55:04.147104","CLASSIFICATION_TYPE":"U","MEAN_MOTION":13.96718857,"ECCENTRICITY":0.0008881,"INCLINATION":88.9796,"RA_OF_ASC_NODE":55.1641,"ARG_OF_PERICENTER":37.1931,"MEAN_ANOMALY":322.986,"EPHEMERIS_TYPE":0,"NORAD_CAT_ID":61566,"ELEMENT_SET_NO":999,"REV_AT_EPOCH":9876,"BSTAR":0.00011349,"MEAN_MOTION_DOT":0.00000171,"MEAN_MOTION_DDOT":0},{"OBJECT_NAME":"QIANFAN-34","OBJECT_ID":"2024-185R","EPOCH":"2026-07-12T18:44:37.599936","CLASSIFICATION_TYPE":"U","MEAN_MOTION":14.02483344,"ECCENTRICITY":0.0007113,"INCLINATION":88.9774,"RA_OF_ASC_NODE":54.4524,"ARG_OF_PERICENTER":36.1768,"MEAN_ANOMALY":323.9892,"EPHEMERIS_TYPE":0,"NORAD_CAT_ID":61567,"ELEMENT_SET_NO":999,"REV_AT_EPOCH":9907,"BSTAR":0.00006883,"MEAN_MOTION_DOT":0.0000012,"MEAN_MOTION_DDOT":0},{"OBJECT_NAME":"QIANFAN-35","OBJECT_ID":"2024-185S","EPOCH":"2026-07-12T18:51:18.273024","CLASSIFICATION_TYPE":"U","MEAN_MOTION":14.28296291,"ECCENTRICITY":0.0004886,"INCLINATION":88.98,"RA_OF_ASC_NODE":51.9922,"ARG_OF_PERICENTER":328.8039,"MEAN_ANOMALY":31.2864,"EPHEMERIS_TYPE":0,"NORAD_CAT_ID":61568,"ELEMENT_SET_NO":999,"REV_AT_EPOCH":10044,"BSTAR":0.00014035,"MEAN_MOTION_DOT":0.00000365,"MEAN_MOTION_DDOT":0},{"OBJECT_NAME":"QIANFAN-36","OBJECT_ID":"2024-185T","EPOCH":"2026-07-12T19:13:49.025568","CLASSIFICATION_TYPE":"U","MEAN_MOTION":13.55639744,"ECCENTRICITY":0.0007425,"INCLINATION":88.9774,"RA_OF_ASC_NODE":58.948,"ARG_OF_PERICENTER":132.8276,"MEAN_ANOMALY":227.3503,"EPHEMERIS_TYPE":0,"NORAD_CAT_ID":61569,"ELEMENT_SET_NO":999,"REV_AT_EPOCH":9665,"BSTAR":0.000059057,"MEAN_MOTION_DOT":5.3e-7,"MEAN_MOTION_DDOT":0},{"OBJECT_NAME":"QIANFAN-37","OBJECT_ID":"2024-232B","EPOCH":"2026-07-12T19:31:15.384864","CLASSIFICATION_TYPE":"U","MEAN_MOTION":13.51011089,"ECCENTRICITY":0.0001919,"INCLINATION":89.0065,"RA_OF_ASC_NODE":20.0099,"ARG_OF_PERICENTER":107.868,"MEAN_ANOMALY":252.268,"EPHEMERIS_TYPE":0,"NORAD_CAT_ID":62238,"ELEMENT_SET_NO":999,"REV_AT_EPOCH":12780,"BSTAR":0.000062699,"MEAN_MOTION_DOT":5.2e-7,"MEAN_MOTION_DDOT":0},{"OBJECT_NAME":"QIANFAN-38","OBJECT_ID":"2024-232C","EPOCH":"2026-07-12T20:06:48.826368","CLASSIFICATION_TYPE":"U","MEAN_MOTION":13.51007734,"ECCENTRICITY":0.0012815,"INCLINATION":89.0072,"RA_OF_ASC_NODE":19.9376,"ARG_OF_PERICENTER":307.5489,"MEAN_ANOMALY":52.4497,"EPHEMERIS_TYPE":0,"NORAD_CAT_ID":62239,"ELEMENT_SET_NO":999,"REV_AT_EPOCH":12786,"BSTAR":0.000054744,"MEAN_MOTION_DOT":4.7e-7,"MEAN_MOTION_DDOT":0},{"OBJECT_NAME":"QIANFAN-39","OBJECT_ID":"2024-232D","EPOCH":"2026-07-12T20:11:06.200736","CLASSIFICATION_TYPE":"U","MEAN_MOTION":14.25532055,"ECCENTRICITY":0.0018484,"INCLINATION":89.0059,"RA_OF_ASC_NODE":13.1436,"ARG_OF_PERICENTER":102.3866,"MEAN_ANOMALY":257.9397,"EPHEMERIS_TYPE":0,"NORAD_CAT_ID":62240,"ELEMENT_SET_NO":999,"REV_AT_EPOCH":13160,"BSTAR":0.000036156,"MEAN_MOTION_DOT":0.000001,"MEAN_MOTION_DDOT":0},{"OBJECT_NAME":"QIANFAN-40","OBJECT_ID":"2024-232E","EPOCH":"2026-07-12T20:54:09.288576","CLASSIFICATION_TYPE":"U","MEAN_MOTION":13.5100929,"ECCENTRICITY":0.001207,"INCLINATION":89.0099,"RA_OF_ASC_NODE":19.578,"ARG_OF_PERICENTER":317.0036,"MEAN_ANOMALY":43.0171,"EPHEMERIS_TYPE":0,"NORAD_CAT_ID":62241,"ELEMENT_SET_NO":999,"REV_AT_EPOCH":12823,"BSTAR":0.00005032,"MEAN_MOTION_DOT":4.4e-7,"MEAN_MOTION_DDOT":0},{"OBJECT_NAME":"QIANFAN-41","OBJECT_ID":"2024-232F","EPOCH":"2026-07-12T19:19:20.690112","CLASSIFICATION_TYPE":"U","MEAN_MOTION":13.51012077,"ECCENTRICITY":0.0012158,"INCLINATION":89.007,"RA_OF_ASC_NODE":19.8885,"ARG_OF_PERICENTER":303.5677,"MEAN_ANOMALY":56.4313,"EPHEMERIS_TYPE":0,"NORAD_CAT_ID":62242,"ELEMENT_SET_NO":999,"REV_AT_EPOCH":12788,"BSTAR":0.000056848,"MEAN_MOTION_DOT":4.9e-7,"MEAN_MOTION_DDOT":0},{"OBJECT_NAME":"QIANFAN-42","OBJECT_ID":"2024-232G","EPOCH":"2026-07-12T20:00:33.864192","CLASSIFICATION_TYPE":"U","MEAN_MOTION":14.24620568,"ECCENTRICITY":0.0017253,"INCLINATION":89.0057,"RA_OF_ASC_NODE":13.223,"ARG_OF_PERICENTER":108.2285,"MEAN_ANOMALY":252.0787,"EPHEMERIS_TYPE":0,"NORAD_CAT_ID":62243,"ELEMENT_SET_NO":999,"REV_AT_EPOCH":13156,"BSTAR":0.000033732,"MEAN_MOTION_DOT":9.3e-7,"MEAN_MOTION_DDOT":0},{"OBJECT_NAME":"QIANFAN-43","OBJECT_ID":"2024-232H","EPOCH":"2026-07-12T19:13:24.707424","CLASSIFICATION_TYPE":"U","MEAN_MOTION":13.51011558,"ECCENTRICITY":0.0013813,"INCLINATION":89.0075,"RA_OF_ASC_NODE":19.9636,"ARG_OF_PERICENTER":308.9261,"MEAN_ANOMALY":51.0658,"EPHEMERIS_TYPE":0,"NORAD_CAT_ID":62244,"ELEMENT_SET_NO":999,"REV_AT_EPOCH":9649,"BSTAR":0.000060225,"MEAN_MOTION_DOT":5.1e-7,"MEAN_MOTION_DDOT":0},{"OBJECT_NAME":"QIANFAN-44","OBJECT_ID":"2024-232J","EPOCH":"2026-07-12T20:42:12.818304","CLASSIFICATION_TYPE":"U","MEAN_MOTION":13.51013464,"ECCENTRICITY":0.001196,"INCLINATION":89.0073,"RA_OF_ASC_NODE":19.7647,"ARG_OF_PERICENTER":306.0548,"MEAN_ANOMALY":53.9495,"EPHEMERIS_TYPE":0,"NORAD_CAT_ID":62245,"ELEMENT_SET_NO":999,"REV_AT_EPOCH":12797,"BSTAR":0.000041862,"MEAN_MOTION_DOT":3.9e-7,"MEAN_MOTION_DDOT":0},{"OBJECT_NAME":"QIANFAN-45","OBJECT_ID":"2024-232K","EPOCH":"2026-07-12T19:54:56.511072","CLASSIFICATION_TYPE":"U","MEAN_MOTION":13.51010877,"ECCENTRICITY":0.0012614,"INCLINATION":89.0076,"RA_OF_ASC_NODE":19.9221,"ARG_OF_PERICENTER":305.4356,"MEAN_ANOMALY":54.5617,"EPHEMERIS_TYPE":0,"NORAD_CAT_ID":62246,"ELEMENT_SET_NO":999,"REV_AT_EPOCH":12789,"BSTAR":0.000033732,"MEAN_MOTION_DOT":3.4e-7,"MEAN_MOTION_DDOT":0},{"OBJECT_NAME":"QIANFAN-46","OBJECT_ID":"2024-232L","EPOCH":"2026-07-12T18:43:47.775648","CLASSIFICATION_TYPE":"U","MEAN_MOTION":13.51011547,"ECCENTRICITY":0.0012803,"INCLINATION":89.0072,"RA_OF_ASC_NODE":19.9874,"ARG_OF_PERICENTER":311.848,"MEAN_ANOMALY":48.1578,"EPHEMERIS_TYPE":0,"NORAD_CAT_ID":62247,"ELEMENT_SET_NO":999,"REV_AT_EPOCH":12784,"BSTAR":0.000032013,"MEAN_MOTION_DOT":3.3e-7,"MEAN_MOTION_DDOT":0},{"OBJECT_NAME":"QIANFAN-47","OBJECT_ID":"2024-232M","EPOCH":"2026-07-12T20:36:23.529888","CLASSIFICATION_TYPE":"U","MEAN_MOTION":13.51011008,"ECCENTRICITY":0.0013199,"INCLINATION":89.0068,"RA_OF_ASC_NODE":19.904,"ARG_OF_PERICENTER":310.4839,"MEAN_ANOMALY":49.5161,"EPHEMERIS_TYPE":0,"NORAD_CAT_ID":62248,"ELEMENT_SET_NO":999,"REV_AT_EPOCH":12788,"BSTAR":0.00005441,"MEAN_MOTION_DOT":4.7e-7,"MEAN_MOTION_DDOT":0},{"OBJECT_NAME":"QIANFAN-48","OBJECT_ID":"2024-232N","EPOCH":"2026-07-12T19:42:52.003008","CLASSIFICATION_TYPE":"U","MEAN_MOTION":13.51015617,"ECCENTRICITY":0.0015508,"INCLINATION":89.0072,"RA_OF_ASC_NODE":19.9178,"ARG_OF_PERICENTER":312.6313,"MEAN_ANOMALY":47.3529,"EPHEMERIS_TYPE":0,"NORAD_CAT_ID":62249,"ELEMENT_SET_NO":999,"REV_AT_EPOCH":12788,"BSTAR":0.000039128,"MEAN_MOTION_DOT":3.7e-7,"MEAN_MOTION_DDOT":0}]}
